OBJECT_NAME,OBJECT_ID,EPOCH,MEAN_MOTION,ECCENTRICITY,INCLINATION,RA_OF_ASC_NODE,ARG_OF_PERICENTER,MEAN_ANOMALY,EPHEMERIS_TYPE,CLASSIFICATION_TYPE,NORAD_CAT_ID,ELEMENT_SET_NO,REV_AT_EPOCH,BSTAR,MEAN_MOTION_DOT,MEAN_MOTION_DDOT
STARLINK-35362,2025-224G,2026-06-28T09:49:08.272992,15.30215809,.00011042,53.1568,217.2364,70.5158,289.5962,0,U,65888,999,4177,.47431444E-3,.13721E-3,0
STARLINK-35193,2025-224H,2026-06-28T11:36:50.647392,15.30202297,.00009951,53.1569,216.9829,92.8107,267.3008,0,U,65889,999,4181,.5002162E-3,.14486E-3,0
STARLINK-34542,2025-224J,2026-06-28T11:32:17.374560,15.30201717,.00008854,53.1564,216.9752,86.2266,273.8836,0,U,65890,999,4183,.61826937E-3,.17998E-3,0
STARLINK-34791,2025-224K,2026-06-28T10:11:54.452256,15.30207309,.00011857,53.1584,217.3265,93.8832,266.2304,0,U,65891,999,4182,.43396961E-3,.12518E-3,0
STARLINK-34853,2025-224L,2026-06-28T12:55:49.812672,15.34387936,.00009143,53.1565,214.4998,67.5800,292.5299,0,U,65892,999,4180,.16583285E-3,.5229E-4,0
STARLINK-34921,2025-224M,2026-06-28T08:19:37.312032,15.30201493,.0000921,53.1576,217.5494,97.8965,262.2141,0,U,65893,999,4181,.29515107E-3,.8393E-4,0
STARLINK-34672,2025-224N,2026-06-28T11:17:04.879968,15.30213686,.00010488,53.1571,216.8978,92.4931,267.6189,0,U,65894,999,4183,.50648973E-3,.14678E-3,0
STARLINK-34898,2025-224P,2026-06-28T09:54:18.852480,15.34398351,.00011764,53.1575,215.1239,91.9328,268.1809,0,U,65895,999,4185,.48391732E-3,.16008E-3,0
STARLINK-34906,2025-224Q,2026-06-28T12:48:01.141920,15.31735188,.00009771,53.1563,215.8736,88.6707,271.4407,0,U,65896,999,4185,.44244285E-3,.13404E-3,0
STARLINK-34934,2025-224R,2026-06-28T11:09:55.843488,15.34393239,.0001052,53.1565,214.7376,92.6113,267.5010,0,U,65897,999,4181,.33322891E-3,.10897E-3,0
STARLINK-34936,2025-224S,2026-06-28T12:52:49.037088,15.34402125,.00009052,53.1556,214.4779,67.6071,292.5027,0,U,65898,999,4187,.51127381E-3,.16938E-3,0
STARLINK-35272,2025-224T,2026-06-28T09:20:59.125344,15.34399415,.00011877,53.1567,214.9779,88.9234,271.1904,0,U,65899,999,4184,.32738782E-3,.10701E-3,0
STARLINK-35264,2025-224U,2026-06-28T12:22:31.111104,15.34402518,.00012015,53.1570,214.3421,75.6180,284.4956,0,U,65900,999,4186,.8570004E-3,.28692E-3,0
STARLINK-35249,2025-224V,2026-06-28T09:46:04.456992,15.30206151,.00009183,53.1562,217.2092,78.3985,281.7119,0,U,65901,999,4180,.59364674E-3,.17267E-3,0
STARLINK-35278,2025-224W,2026-06-28T11:35:19.459968,15.30200644,.00010021,53.1581,216.9731,90.0769,270.0347,0,U,65902,999,4183,.53149117E-3,.15415E-3,0
STARLINK-35210,2025-224X,2026-06-28T10:14:57.051744,15.30200576,.00010504,53.1581,217.3379,86.1346,273.9775,0,U,65903,999,4180,.71460341E-3,.20865E-3,0
STARLINK-35348,2025-224Y,2026-06-28T12:34:38.129088,15.34406886,.0001091,53.1567,214.3949,88.5663,271.5464,0,U,65904,999,4182,.53711848E-3,.17818E-3,0
STARLINK-35380,2025-224Z,2026-06-28T12:40:30.559008,15.30198812,.00010905,53.1565,216.5452,87.4552,272.6573,0,U,65905,999,4179,.51350736E-3,.14879E-3,0
STARLINK-35385,2025-224AA,2026-06-28T08:08:24.257760,15.34390659,.0000951,53.1564,215.3733,80.7525,279.3585,0,U,65906,999,4182,.50102847E-3,.16584E-3,0
STARLINK-35347,2025-224AB,2026-06-28T09:33:06.125184,15.34409221,.00010472,53.1559,215.0263,72.5744,287.5373,0,U,65907,999,4183,.47932745E-3,.15858E-3,0
STARLINK-35329,2025-224AC,2026-06-28T11:25:04.897632,15.34418140,.00008506,53.1563,214.8036,96.4087,263.7012,0,U,65908,999,4185,.67199747E-3,.22409E-3,0
STARLINK-35387,2025-224AD,2026-06-28T11:42:54.545184,15.30173258,.00008606,53.1581,217.0065,85.4203,274.6896,0,U,65909,999,4178,-.33560091E-3,-.10276E-3,0
STARLINK-35523,2025-225A,2026-06-28T05:52:17.388480,15.34411153,.00017135,53.1602,11.5253,83.3114,276.8084,0,U,65910,999,4134,.58585275E-3,.19476E-3,0
STARLINK-35160,2025-225B,2026-06-28T13:26:07.288512,15.34417937,.00023352,53.1580,9.9392,88.7505,271.3765,0,U,65911,999,4139,.84754314E-3,.28385E-3,0
STARLINK-35508,2025-225C,2026-06-28T13:13:59.823840,15.34407216,.00007312,53.1582,9.8854,37.0882,323.0171,0,U,65912,999,4139,.58898707E-3,.1958E-3,0
STARLINK-35472,2025-225D,2026-06-28T12:25:39.181440,15.34410859,.00024708,53.1604,10.3863,80.5718,279.5563,0,U,65913,999,4138,.59984658E-3,.19952E-3,0
STARLINK-35524,2025-225E,2026-06-28T06:07:26.183424,15.34420005,.00019178,53.1613,11.5831,85.2878,274.8343,0,U,65914,999,4134,.84688799E-3,.28364E-3,0
STARLINK-35539,2025-225F,2026-06-28T05:45:29.551968,15.30226389,.00013919,53.1591,12.2173,69.7892,290.3258,0,U,65915,999,4133,.81286616E-3,.23812E-3,0
STARLINK-35521,2025-225G,2026-06-28T12:52:55.049664,15.34406206,.00007562,53.1602,10.5005,64.8984,295.2097,0,U,65916,999,4138,.58428307E-3,.1942E-3,0
STARLINK-35478,2025-225H,2026-06-28T06:19:33.489120,15.34410860,.00010604,53.1607,11.6401,92.6606,267.4518,0,U,65917,999,4134,.66421696E-3,.22139E-3,0
