STARLINK-35362          
1 65888U 25224G   26179.40912353  .00013721  00000+0  47431-3 0  9997
2 65888  53.1568 217.2364 0001104  70.5158 289.5962 15.30215809 41776
STARLINK-35193          
1 65889U 25224H   26179.48391953  .00014486  00000+0  50022-3 0  9992
2 65889  53.1569 216.9829 0000995  92.8107 267.3008 15.30202297 41815
STARLINK-34542          
1 65890U 25224J   26179.48075665  .00017998  00000+0  61827-3 0  9999
2 65890  53.1564 216.9752 0000885  86.2266 273.8836 15.30201717 41837
STARLINK-34791          
1 65891U 25224K   26179.42493579  .00012518  00000+0  43397-3 0  9997
2 65891  53.1584 217.3265 0001185  93.8832 266.2304 15.30207309 41829
STARLINK-34853          
1 65892U 25224L   26179.53877098  .00005229  00000+0  16583-3 0  9990
2 65892  53.1565 214.4998 0000914  67.5800 292.5299 15.34387936 41804
STARLINK-34921          
1 65893U 25224M   26179.34695963  .00008393  00000+0  29515-3 0  9993
2 65893  53.1576 217.5494 0000921  97.8965 262.2141 15.30201493 41818
STARLINK-34672          
1 65894U 25224N   26179.47019537  .00014678  00000+0  50649-3 0  9990
2 65894  53.1571 216.8978 0001048  92.4931 267.6189 15.30213686 41838
STARLINK-34898          
1 65895U 25224P   26179.41271820  .00016008  00000+0  48392-3 0  9991
2 65895  53.1575 215.1239 0001176  91.9328 268.1809 15.34398351 41855
STARLINK-34906          
1 65896U 25224Q   26179.53334655  .00013404  00000+0  44244-3 0  9990
2 65896  53.1563 215.8736 0000977  88.6707 271.4407 15.31735188 41855
STARLINK-34934          
1 65897U 25224R   26179.46522967  .00010897  00000+0  33323-3 0  9997
2 65897  53.1565 214.7376 0001052  92.6113 267.5010 15.34393239 41819
STARLINK-34936          
1 65898U 25224S   26179.53667867  .00016938  00000+0  51127-3 0  9999
2 65898  53.1556 214.4779 0000905  67.6071 292.5027 15.34402125 41872
STARLINK-35272          
1 65899U 25224T   26179.38957321  .00010701  00000+0  32739-3 0  9990
2 65899  53.1567 214.9779 0001187  88.9234 271.1904 15.34399415 41841
STARLINK-35264          
1 65900U 25224U   26179.51563786  .00028692  00000+0  85700-3 0  9990
2 65900  53.1570 214.3421 0001201  75.6180 284.4956 15.34402518 41861
STARLINK-35249          
1 65901U 25224V   26179.40699603  .00017267  00000+0  59365-3 0  9991
2 65901  53.1562 217.2092 0000918  78.3985 281.7119 15.30206151 41802
STARLINK-35278          
1 65902U 25224W   26179.48286412  .00015415  00000+0  53149-3 0  9997
2 65902  53.1581 216.9731 0001002  90.0769 270.0347 15.30200644 41834
STARLINK-35210          
1 65903U 25224X   26179.42704921  .00020865  00000+0  71460-3 0  9993
2 65903  53.1581 217.3379 0001050  86.1346 273.9775 15.30200576 41806
STARLINK-35348          
1 65904U 25224Y   26179.52405242  .00017818  00000+0  53712-3 0  9993
2 65904  53.1567 214.3949 0001091  88.5663 271.5464 15.34406886 41821
STARLINK-35380          
1 65905U 25224Z   26179.52813147  .00014879  00000+0  51351-3 0  9992
2 65905  53.1565 216.5452 0001090  87.4552 272.6573 15.30198812 41799
STARLINK-35385          
1 65906U 25224AA  26179.33916965  .00016584  00000+0  50103-3 0  9993
2 65906  53.1564 215.3733 0000951  80.7525 279.3585 15.34390659 41827
STARLINK-35347          
1 65907U 25224AB  26179.39798756  .00015858  00000+0  47933-3 0  9996
2 65907  53.1559 215.0263 0001047  72.5744 287.5373 15.34409221 41839
STARLINK-35329          
1 65908U 25224AC  26179.47575113  .00022409  00000+0  67200-3 0  9995
2 65908  53.1563 214.8036 0000850  96.4087 263.7012 15.34418140 41854
STARLINK-35387          
1 65909U 25224AD  26179.48813131 -.00010276  00000+0 -33560-3 0  9995
2 65909  53.1581 217.0065 0000860  85.4203 274.6896 15.30173258 41788
STARLINK-35523          
1 65910U 25225A   26179.24464570  .00019476  00000+0  58585-3 0  9994
2 65910  53.1602  11.5253 0001713  83.3114 276.8084 15.34411153 41344
STARLINK-35160          
1 65911U 25225B   26179.55980658  .00028385  00000+0  84754-3 0  9995
2 65911  53.1580   9.9392 0002335  88.7505 271.3765 15.34417937 41396
STARLINK-35508          
1 65912U 25225C   26179.55138685  .00019580  00000+0  58899-3 0  9999
2 65912  53.1582   9.8854 0000731  37.0882 323.0171 15.34407216 41399
STARLINK-35472          
1 65913U 25225D   26179.51781460  .00019952  00000+0  59985-3 0  9991
2 65913  53.1604  10.3863 0002470  80.5718 279.5563 15.34410859 41381
STARLINK-35524          
1 65914U 25225E   26179.25516416  .00028364  00000+0  84689-3 0  9996
2 65914  53.1613  11.5831 0001917  85.2878 274.8343 15.34420005 41348
STARLINK-35539          
1 65915U 25225F   26179.23992537  .00023812  00000+0  81287-3 0  9991
2 65915  53.1591  12.2173 0001391  69.7892 290.3258 15.30226389 41332
STARLINK-35521          
1 65916U 25225G   26179.53674826  .00019420  00000+0  58428-3 0  9994
2 65916  53.1602  10.5005 0000756  64.8984 295.2097 15.34406206 41385
STARLINK-35478          
1 65917U 25225H   26179.26358205  .00022139  00000+0  66422-3 0  9999
2 65917  53.1607  11.6401 0001060  92.6606 267.4518 15.34410860 41348
